{
  "type": "FeatureCollection",
  "features": [
    {
      "type": "Feature",
      "properties": {
        "norad_id": 31619,
        "name": "FENGYUN 1C DEB",
        "group": "fengyun-1c-debris",
        "lat": -16.613130367738815,
        "lon": -172.45274201496517,
        "alt_km": 585.788274823718,
        "timestamp": "2025-12-17T13:48:37.837671+00:00",
        "meta_object_name": "FENGYUN 1C DEB",
        "meta_object_id": "1999-025BZZ",
        "meta_epoch": "2025-12-16T12:01:36.025824",
        "meta_mean_motion": 14.85820352,
        "meta_eccentricity": 0.00948594,
        "meta_inclination": 99.0719,
        "meta_ra_of_asc_node": 183.5911,
        "meta_arg_of_pericenter": 283.0072,
        "meta_mean_anomaly": 76.0561,
        "meta_ephemeris_type": 0,
        "meta_classification_type": "U",
        "meta_norad_cat_id": 31619,
        "meta_element_set_no": 999,
        "meta_rev_at_epoch": 63544,
        "meta_bstar": 0.0034728808,
        "meta_mean_motion_dot": 0.00032844,
        "meta_mean_motion_ddot": 0,
        "tle_line1": "1 31619U 99025BZZ 25350.50111141  .00032844  00000+0  34729-2 0  9991",
        "tle_line2": "2 31619  99.0719 183.5911 0094859 283.0072  76.0561 14.85820352635447"
      },
      "geometry": {
        "type": "Point",
        "coordinates": [
          -172.45274201496517,
          -16.613130367738815
        ]
      }
    },
    {
      "type": "Feature",
      "properties": {
        "norad_id": 31620,
        "name": "FENGYUN 1C DEB",
        "group": "fengyun-1c-debris",
        "lat": -19.88589673323736,
        "lon": -107.42710849568873,
        "alt_km": 786.5789257742645,
        "timestamp": "2025-12-17T13:48:37.837683+00:00",
        "meta_object_name": "FENGYUN 1C DEB",
        "meta_object_id": "1999-025CAA",
        "meta_epoch": "2025-12-16T11:49:19.295616",
        "meta_mean_motion": 14.3728286,
        "meta_eccentricity": 0.00198291,
        "meta_inclination": 98.8873,
        "meta_ra_of_asc_node": 74.6992,
        "meta_arg_of_pericenter": 32.0467,
        "meta_mean_anomaly": 328.192,
        "meta_ephemeris_type": 0,
        "meta_classification_type": "U",
        "meta_norad_cat_id": 31620,
        "meta_element_set_no": 999,
        "meta_rev_at_epoch": 65898,
        "meta_bstar": 0.0016386082,
        "meta_mean_motion_dot": 4.852e-05,
        "meta_mean_motion_ddot": 0,
        "tle_line1": "1 31620U 99025CAA 25350.49258444  .00004852  00000+0  16386-2 0  9996",
        "tle_line2": "2 31620  98.8873  74.6992 0019829  32.0467 328.1920 14.37282860658987"
      },
      "geometry": {
        "type": "Point",
        "coordinates": [
          -107.42710849568873,
          -19.88589673323736
        ]
      }
    },
    {
      "type": "Feature",
      "properties": {
        "norad_id": 31622,
        "name": "FENGYUN 1C DEB",
        "group": "fengyun-1c-debris",
        "lat": -3.9096935739847614,
        "lon": -94.14071260218448,
        "alt_km": 779.708615305789,
        "timestamp": "2025-12-17T13:48:37.837693+00:00",
        "meta_object_name": "FENGYUN 1C DEB",
        "meta_object_id": "1999-025CAC",
        "meta_epoch": "2025-12-17T06:23:07.477728",
        "meta_mean_motion": 14.3723049,
        "meta_eccentricity": 0.00151472,
        "meta_inclination": 98.8163,
        "meta_ra_of_asc_node": 86.1501,
        "meta_arg_of_pericenter": 327.6084,
        "meta_mean_anomaly": 56.5092,
        "meta_ephemeris_type": 0,
        "meta_classification_type": "U",
        "meta_norad_cat_id": 31622,
        "meta_element_set_no": 999,
        "meta_rev_at_epoch": 95837,
        "meta_bstar": 0.00149335,
        "meta_mean_motion_dot": 4.409e-05,
        "meta_mean_motion_ddot": 0,
        "tle_line1": "1 31622U 99025CAC 25351.26605877  .00004409  00000+0  14934-2 0  9995",
        "tle_line2": "2 31622  98.8163  86.1501 0015147 327.6084  56.5092 14.37230490958372"
      },
      "geometry": {
        "type": "Point",
        "coordinates": [
          -94.14071260218448,
          -3.9096935739847614
        ]
      }
    },
    {
      "type": "Feature",
      "properties": {
        "norad_id": 31623,
        "name": "FENGYUN 1C DEB",
        "group": "fengyun-1c-debris",
        "lat": -65.01298488954431,
        "lon": 5.526355490533862,
        "alt_km": 1000.1668229191691,
        "timestamp": "2025-12-17T13:48:37.837702+00:00",
        "meta_object_name": "FENGYUN 1C DEB",
        "meta_object_id": "1999-025CAD",
        "meta_epoch": "2025-12-02T20:02:22.350624",
        "meta_mean_motion": 13.82580933,
        "meta_eccentricity": 0.01951152,
        "meta_inclination": 97.6304,
        "meta_ra_of_asc_node": 190.283,
        "meta_arg_of_pericenter": 33.7651,
        "meta_mean_anomaly": 327.5758,
        "meta_ephemeris_type": 0,
        "meta_classification_type": "U",
        "meta_norad_cat_id": 31623,
        "meta_element_set_no": 999,
        "meta_rev_at_epoch": 57783,
        "meta_bstar": 0.00047153491,
        "meta_mean_motion_dot": 5.61e-06,
        "meta_mean_motion_ddot": 0,
        "tle_line1": "1 31623U 99025CAD 25336.83498091  .00000561  00000+0  47153-3 0  9995",
        "tle_line2": "2 31623  97.6304 190.2830 0195115  33.7651 327.5758 13.82580933577835"
      },
      "geometry": {
        "type": "Point",
        "coordinates": [
          5.526355490533862,
          -65.01298488954431
        ]
      }
    },
    {
      "type": "Feature",
      "properties": {
        "norad_id": 31625,
        "name": "FENGYUN 1C DEB",
        "group": "fengyun-1c-debris",
        "lat": 56.894526616521375,
        "lon": -88.38391827326716,
        "alt_km": 755.674327285159,
        "timestamp": "2025-12-17T13:48:37.837712+00:00",
        "meta_object_name": "FENGYUN 1C DEB",
        "meta_object_id": "1999-025CAF",
        "meta_epoch": "2025-12-17T05:08:16.719360",
        "meta_mean_motion": 14.55405403,
        "meta_eccentricity": 0.01490432,
        "meta_inclination": 98.806,
        "meta_ra_of_asc_node": 77.4816,
        "meta_arg_of_pericenter": 2.163,
        "meta_mean_anomaly": 26.1384,
        "meta_ephemeris_type": 0,
        "meta_classification_type": "U",
        "meta_norad_cat_id": 31625,
        "meta_element_set_no": 999,
        "meta_rev_at_epoch": 98458,
        "meta_bstar": 0.00012047845,
        "meta_mean_motion_dot": 5.47e-06,
        "meta_mean_motion_ddot": 0,
        "tle_line1": "1 31625U 99025CAF 25351.21408240  .00000547  00000+0  12048-3 0  9992",
        "tle_line2": "2 31625  98.8060  77.4816 0149043   2.1630  26.1384 14.55405403984585"
      },
      "geometry": {
        "type": "Point",
        "coordinates": [
          -88.38391827326716,
          56.894526616521375
        ]
      }
    },
    {
      "type": "Feature",
      "properties": {
        "norad_id": 31627,
        "name": "FENGYUN 1C DEB",
        "group": "fengyun-1c-debris",
        "lat": 7.336656856058896,
        "lon": 38.28734510811865,
        "alt_km": 799.4018983372707,
        "timestamp": "2025-12-17T13:48:37.837721+00:00",
        "meta_object_name": "FENGYUN 1C DEB",
        "meta_object_id": "1999-025CAH",
        "meta_epoch": "2025-11-26T09:13:22.975680",
        "meta_mean_motion": 14.35408996,
        "meta_eccentricity": 0.00515931,
        "meta_inclination": 98.5313,
        "meta_ra_of_asc_node": 18.4415,
        "meta_arg_of_pericenter": 201.9005,
        "meta_mean_anomaly": 157.9975,
        "meta_ephemeris_type": 0,
        "meta_classification_type": "U",
        "meta_norad_cat_id": 31627,
        "meta_element_set_no": 999,
        "meta_rev_at_epoch": 64532,
        "meta_bstar": 0.0013473839,
        "meta_mean_motion_dot": 3.885e-05,
        "meta_mean_motion_ddot": 0,
        "tle_line1": "1 31627U 99025CAH 25330.38429370  .00003885  00000+0  13474-2 0  9997",
        "tle_line2": "2 31627  98.5313  18.4415 0051593 201.9005 157.9975 14.35408996645325"
      },
      "geometry": {
        "type": "Point",
        "coordinates": [
          38.28734510811865,
          7.336656856058896
        ]
      }
    },
    {
      "type": "Feature",
      "properties": {
        "norad_id": 31628,
        "name": "FENGYUN 1C DEB",
        "group": "fengyun-1c-debris",
        "lat": -25.815936559564122,
        "lon": 21.856283192771972,
        "alt_km": 821.9990102086322,
        "timestamp": "2025-12-17T13:48:37.837734+00:00",
        "meta_object_name": "FENGYUN 1C DEB",
        "meta_object_id": "1999-025CAJ",
        "meta_epoch": "2025-12-17T07:37:10.557984",
        "meta_mean_motion": 13.86856609,
        "meta_eccentricity": 0.01683071,
        "meta_inclination": 102.271,
        "meta_ra_of_asc_node": 207.5625,
        "meta_arg_of_pericenter": 209.264,
        "meta_mean_anomaly": 149.8996,
        "meta_ephemeris_type": 0,
        "meta_classification_type": "U",
        "meta_norad_cat_id": 31628,
        "meta_element_set_no": 999,
        "meta_rev_at_epoch": 93363,
        "meta_bstar": 0.0017771958,
        "meta_mean_motion_dot": 2.252e-05,
        "meta_mean_motion_ddot": 0,
        "tle_line1": "1 31628U 99025CAJ 25351.31748331  .00002252  00000+0  17772-2 0  9997",
        "tle_line2": "2 31628 102.2710 207.5625 0168307 209.2640 149.8996 13.86856609933632"
      },
      "geometry": {
        "type": "Point",
        "coordinates": [
          21.856283192771972,
          -25.815936559564122
        ]
      }
    }
  ]
}